{
  "type": "FeatureCollection",
  "features": [
    {
      "type": "Feature",
      "properties": {
        "norad_id": 38062,
        "name": "COSMOS 2251 DEB",
        "group": "cosmos-2251-debris",
        "lat": -64.02038818212203,
        "lon": 121.16257898486414,
        "alt_km": 595.2615935348349,
        "timestamp": "2025-12-25T07:00:34.446270+00:00",
        "meta_object_name": "COSMOS 2251 DEB",
        "meta_object_id": "1993-036BRU",
        "meta_epoch": "2025-12-20T12:40:12.328608",
        "meta_mean_motion": 14.95206267,
        "meta_eccentricity": 0.00129431,
        "meta_inclination": 74.0088,
        "meta_ra_of_asc_node": 274.7346,
        "meta_arg_of_pericenter": 42.7602,
        "meta_mean_anomaly": 131.9089,
        "meta_ephemeris_type": 0,
        "meta_classification_type": "U",
        "meta_norad_cat_id": 38062,
        "meta_element_set_no": 999,
        "meta_rev_at_epoch": 63146,
        "meta_bstar": 0.0014745207,
        "meta_mean_motion_dot": 0.00016237,
        "meta_mean_motion_ddot": 0,
        "tle_line1": "1 38062U 93036BRU 25354.52792047  .00016237  00000+0  14745-2 0  9996",
        "tle_line2": "2 38062  74.0088 274.7346 0012943  42.7602 131.9089 14.95206267631464"
      },
      "geometry": {
        "type": "Point",
        "coordinates": [
          121.16257898486414,
          -64.02038818212203
        ]
      }
    },
    {
      "type": "Feature",
      "properties": {
        "norad_id": 38064,
        "name": "COSMOS 2251 DEB",
        "group": "cosmos-2251-debris",
        "lat": -35.10422572874961,
        "lon": -68.07649403092954,
        "alt_km": 677.3914016948602,
        "timestamp": "2025-12-25T07:00:34.446280+00:00",
        "meta_object_name": "COSMOS 2251 DEB",
        "meta_object_id": "1993-036BRW",
        "meta_epoch": "2025-12-24T00:20:31.022880",
        "meta_mean_motion": 14.5638999,
        "meta_eccentricity": 0.00470717,
        "meta_inclination": 74.023,
        "meta_ra_of_asc_node": 102.7307,
        "meta_arg_of_pericenter": 220.4178,
        "meta_mean_anomaly": 139.3486,
        "meta_ephemeris_type": 0,
        "meta_classification_type": "U",
        "meta_norad_cat_id": 38064,
        "meta_element_set_no": 999,
        "meta_rev_at_epoch": 72029,
        "meta_bstar": 0.0010077447,
        "meta_mean_motion_dot": 4.512e-05,
        "meta_mean_motion_ddot": 0,
        "tle_line1": "1 38064U 93036BRW 25358.01424795  .00004512  00000+0  10077-2 0  9995",
        "tle_line2": "2 38064  74.0230 102.7307 0047071 220.4178 139.3486 14.56389990720290"
      },
      "geometry": {
        "type": "Point",
        "coordinates": [
          -68.07649403092954,
          -35.10422572874961
        ]
      }
    },
    {
      "type": "Feature",
      "properties": {
        "norad_id": 38067,
        "name": "COSMOS 2251 DEB",
        "group": "cosmos-2251-debris",
        "lat": 50.80013124666927,
        "lon": -88.9460729866754,
        "alt_km": 637.6315991136189,
        "timestamp": "2025-12-25T07:00:34.446290+00:00",
        "meta_object_name": "COSMOS 2251 DEB",
        "meta_object_id": "1993-036BRZ",
        "meta_epoch": "2025-12-23T23:37:20.127936",
        "meta_mean_motion": 14.61165668,
        "meta_eccentricity": 0.0069893,
        "meta_inclination": 74.016,
        "meta_ra_of_asc_node": 252.9804,
        "meta_arg_of_pericenter": 37.5842,
        "meta_mean_anomaly": 339.4482,
        "meta_ephemeris_type": 0,
        "meta_classification_type": "U",
        "meta_norad_cat_id": 38067,
        "meta_element_set_no": 999,
        "meta_rev_at_epoch": 62720,
        "meta_bstar": 0.00036242,
        "meta_mean_motion_dot": 1.816e-05,
        "meta_mean_motion_ddot": 0,
        "tle_line1": "1 38067U 93036BRZ 25357.98426074  .00001816  00000+0  36242-3 0  9992",
        "tle_line2": "2 38067  74.0160 252.9804 0069893  37.5842 339.4482 14.61165668627202"
      },
      "geometry": {
        "type": "Point",
        "coordinates": [
          -88.9460729866754,
          50.80013124666927
        ]
      }
    },
    {
      "type": "Feature",
      "properties": {
        "norad_id": 38068,
        "name": "COSMOS 2251 DEB",
        "group": "cosmos-2251-debris",
        "lat": 54.52376186690337,
        "lon": 81.49148852951205,
        "alt_km": 772.2524234091243,
        "timestamp": "2025-12-25T07:00:34.446300+00:00",
        "meta_object_name": "COSMOS 2251 DEB",
        "meta_object_id": "1993-036BSA",
        "meta_epoch": "2025-11-26T00:12:22.263264",
        "meta_mean_motion": 14.35960004,
        "meta_eccentricity": 0.00240903,
        "meta_inclination": 74.0219,
        "meta_ra_of_asc_node": 338.9788,
        "meta_arg_of_pericenter": 72.1007,
        "meta_mean_anomaly": 288.2769,
        "meta_ephemeris_type": 0,
        "meta_classification_type": "U",
        "meta_norad_cat_id": 38068,
        "meta_element_set_no": 999,
        "meta_rev_at_epoch": 66406,
        "meta_bstar": 0.00028750999,
        "meta_mean_motion_dot": 8.11e-06,
        "meta_mean_motion_ddot": 0,
        "tle_line1": "1 38068U 93036BSA 25330.00859101  .00000811  00000+0  28751-3 0  9998",
        "tle_line2": "2 38068  74.0219 338.9788 0024090  72.1007 288.2769 14.35960004664064"
      },
      "geometry": {
        "type": "Point",
        "coordinates": [
          81.49148852951205,
          54.52376186690337
        ]
      }
    },
    {
      "type": "Feature",
      "properties": {
        "norad_id": 38197,
        "name": "COSMOS 2251 DEB",
        "group": "cosmos-2251-debris",
        "lat": 38.76659412123522,
        "lon": -14.233239147567812,
        "alt_km": 728.1381108981541,
        "timestamp": "2025-12-25T07:00:34.446311+00:00",
        "meta_object_name": "COSMOS 2251 DEB",
        "meta_object_id": "1993-036BSM",
        "meta_epoch": "2025-12-22T15:18:58.604256",
        "meta_mean_motion": 14.74460834,
        "meta_eccentricity": 0.01247811,
        "meta_inclination": 73.938,
        "meta_ra_of_asc_node": 337.6017,
        "meta_arg_of_pericenter": 212.6548,
        "meta_mean_anomaly": 146.6868,
        "meta_ephemeris_type": 0,
        "meta_classification_type": "U",
        "meta_norad_cat_id": 38197,
        "meta_element_set_no": 999,
        "meta_rev_at_epoch": 85901,
        "meta_bstar": 0.0030808591,
        "meta_mean_motion_dot": 0.00023252,
        "meta_mean_motion_ddot": 0,
        "tle_line1": "1 38197U 93036BSM 25356.63817829  .00023252  00000+0  30809-2 0  9999",
        "tle_line2": "2 38197  73.9380 337.6017 0124781 212.6548 146.6868 14.74460834859011"
      },
      "geometry": {
        "type": "Point",
        "coordinates": [
          -14.233239147567812,
          38.76659412123522
        ]
      }
    },
    {
      "type": "Feature",
      "properties": {
        "norad_id": 38199,
        "name": "COSMOS 2251 DEB",
        "group": "cosmos-2251-debris",
        "lat": -69.14232179401468,
        "lon": -7.479838016324104,
        "alt_km": 817.3756165195373,
        "timestamp": "2025-12-25T07:00:34.446321+00:00",
        "meta_object_name": "COSMOS 2251 DEB",
        "meta_object_id": "1993-036BSP",
        "meta_epoch": "2025-12-23T11:22:51.988512",
        "meta_mean_motion": 13.64808888,
        "meta_eccentricity": 0.03701637,
        "meta_inclination": 73.9557,
        "meta_ra_of_asc_node": 44.5515,
        "meta_arg_of_pericenter": 328.9029,
        "meta_mean_anomaly": 29.0633,
        "meta_ephemeris_type": 0,
        "meta_classification_type": "U",
        "meta_norad_cat_id": 38199,
        "meta_element_set_no": 999,
        "meta_rev_at_epoch": 61168,
        "meta_bstar": 0.00059794488,
        "meta_mean_motion_dot": 7.45e-06,
        "meta_mean_motion_ddot": 0,
        "tle_line1": "1 38199U 93036BSP 25357.47421283  .00000745  00000+0  59794-3 0  9996",
        "tle_line2": "2 38199  73.9557  44.5515 0370163 328.9029  29.0633 13.64808888611684"
      },
      "geometry": {
        "type": "Point",
        "coordinates": [
          -7.479838016324104,
          -69.14232179401468
        ]
      }
    },
    {
      "type": "Feature",
      "properties": {
        "norad_id": 38208,
        "name": "COSMOS 2251 DEB",
        "group": "cosmos-2251-debris",
        "lat": 66.39730721389913,
        "lon": 95.01210747749752,
        "alt_km": 608.345019338718,
        "timestamp": "2025-12-25T07:00:34.446331+00:00",
        "meta_object_name": "COSMOS 2251 DEB",
        "meta_object_id": "1993-036BSY",
        "meta_epoch": "2025-12-24T21:46:12.990720",
        "meta_mean_motion": 14.84316726,
        "meta_eccentricity": 8.238e-05,
        "meta_inclination": 74.0046,
        "meta_ra_of_asc_node": 54.7436,
        "meta_arg_of_pericenter": 100.932,
        "meta_mean_anomaly": 75.2719,
        "meta_ephemeris_type": 0,
        "meta_classification_type": "U",
        "meta_norad_cat_id": 38208,
        "meta_element_set_no": 999,
        "meta_rev_at_epoch": 71339,
        "meta_bstar": 0.0022712127,
        "meta_mean_motion_dot": 0.00019077,
        "meta_mean_motion_ddot": 0,
        "tle_line1": "1 38208U 93036BSY 25358.90709480  .00019077  00000+0  22712-2 0  9991",
        "tle_line2": "2 38208  74.0046  54.7436 0000823 100.9320  75.2719 14.84316726713397"
      },
      "geometry": {
        "type": "Point",
        "coordinates": [
          95.01210747749752,
          66.39730721389913
        ]
      }
    }
  ]
}